NORAD_CAT_ID,OBJECT_NAME,OBJECT_TYPE,EPOCH,MEAN_MOTION,ECCENTRICITY,INCLINATION,RA_OF_ASC_NODE,ARG_OF_PERICENTER,MEAN_ANOMALY,BSTAR,MEAN_MOTION_DOT,MEAN_MOTION_DDOT,TLE_LINE0,TLE_LINE1,TLE_LINE2,SEMIMAJOR_AXIS,PERIOD,APOGEE,PERIGEE,DECAYED
52705.0,STARLINK-3844,PAYLOAD,2023-05-17 02:18:24,15.08846745,0.000142,53.2172,67.1624,81.8349,278.2804,3.3795e-05,2.5e-06,0.0,0 STARLINK-3844,1 52705U 22053BB  23137.09611268  .00000250  00000-0  33795-4 0  9998,2 52705  53.2172  67.1624 0001420  81.8349 278.2804 15.08846745 56186,6917.86,95.437,540.707,538.742,0.0
52705.0,STARLINK-3844,PAYLOAD,2023-05-18 02:09:11,15.08837231,0.0001341,53.2179,62.7048,87.9095,272.205,4.1076e-05,3.66e-06,0.0,0 STARLINK-3844,1 52705U 22053BB  23138.08971818  .00000366  00000-0  41076-4 0  9997,2 52705  53.2179  62.7048 0001341  87.9095 272.2050 15.08837231 55907,6917.889,95.438,540.682,538.826,0.0
52705.0,STARLINK-3844,PAYLOAD,2023-05-18 19:38:26,15.08838297,0.0001187,53.2173,59.4308,73.8342,286.278,-6.7076e-05,-1.355e-05,0.0,0 STARLINK-3844,1 52705U 22053BB  23138.81835916 -.00001355  00000-0 -67076-4 0  9995,2 52705  53.2173  59.4308 0001187  73.8342 286.2780 15.08838297 56448,6917.886,95.438,540.572,538.929,0.0
52705.0,STARLINK-3844,PAYLOAD,2023-05-19 03:35:21,15.08843621,0.0001325,53.2188,57.9452,86.9989,273.1155,9.3725e-05,1.204e-05,0.0,0 STARLINK-3844,1 52705U 22053BB  23139.14955836  .00001204  00000-0  93725-4 0  9997,2 52705  53.2188  57.9452 0001325  86.9989 273.1155 15.08843621 56069,6917.869,95.437,540.651,538.818,0.0
52705.0,STARLINK-3844,PAYLOAD,2023-05-19 17:53:50,15.08839306,0.0001328,53.2192,55.2683,96.5961,263.5183,5.0384e-05,5.14e-06,0.0,0 STARLINK-3844,1 52705U 22053BB  23139.74572315  .00000514  00000-0  50384-4 0  9997,2 52705  53.2192  55.2683 0001328  96.5961 263.5183 15.08839306 56150,6917.883,95.438,540.666,538.829,0.0
52705.0,STARLINK-3844,PAYLOAD,2023-05-20 03:26:08,15.08846337,0.0001235,53.2188,53.4847,89.5263,270.5871,0.00014072,1.953e-05,0.0,0 STARLINK-3844,1 52705U 22053BB  23140.14315729  .00001953  00000-0  14072-3 0  9998,2 52705  53.2188  53.4847 0001235  89.5263 270.5871 15.08846337 56212,6917.861,95.437,540.58,538.872,0.0
52705.0,STARLINK-3844,PAYLOAD,2023-05-20 20:55:22,15.08852159,0.0001147,53.219,50.213,91.0546,269.0577,0.00016716,2.374e-05,0.0,0 STARLINK-3844,1 52705U 22053BB  23140.87179124  .00002374  00000-0  16716-3 0  9990,2 52705  53.2190  50.2130 0001147  91.0546 269.0577 15.08852159 56753,6917.843,95.437,540.502,538.915,0.0
52705.0,STARLINK-3844,PAYLOAD,2023-05-21 03:16:54,15.08864296,0.0001279,53.2187,49.0227,91.6173,268.4966,0.00038305,5.818e-05,0.0,0 STARLINK-3844,1 52705U 22053BB  23141.13674484  .00005818  00000-0  38305-3 0  9993,2 52705  53.2187  49.0227 0001279  91.6173 268.4966 15.08864296 56367,6917.806,95.436,540.556,538.786,0.0
52705.0,STARLINK-3844,PAYLOAD,2023-05-21 20:46:11,15.08830152,0.00013,53.2187,45.753,90.0648,270.0494,-0.00013111,-2.373e-05,0.0,0 STARLINK-3844,1 52705U 22053BB  23141.86540605 -.00002373  00000-0 -13111-3 0  9993,2 52705  53.2187  45.7530 0001300  90.0648 270.0494 15.08830152 56901,6917.91,95.438,540.675,538.876,0.0
52705.0,STARLINK-3844,PAYLOAD,2023-05-21 23:56:57,15.08827824,0.0001179,53.2184,45.1586,102.4569,257.6556,-0.00018504,-3.23e-05,0.0,0 STARLINK-3844,1 52705U 22053BB  23141.99788450 -.00003230  00000-0 -18504-3 0  9993,2 52705  53.2184  45.1586 0001179 102.4569 257.6556 15.08827824 56493,6917.918,95.438,540.598,538.967,0.0
52705.0,STARLINK-3844,PAYLOAD,2023-05-22 11:04:39,15.08831674,0.0001256,53.2186,43.0766,105.09,255.0231,8.8235e-06,-1.47e-06,0.0,0 STARLINK-3844,1 52705U 22053BB  23142.46156757 -.00000147  00000-0  88235-5 0  9998,2 52705  53.2186  43.0766 0001256 105.0900 255.0231 15.08831674 56991,6917.906,95.438,540.64,538.902,0.0
52705.0,STARLINK-3844,PAYLOAD,2023-05-22 20:36:58,15.08840588,0.0001114,53.2188,41.2932,101.9674,258.1443,0.00017717,2.533e-05,0.0,0 STARLINK-3844,1 52705U 22053BB  23142.85900670  .00002533  00000-0  17717-3 0  9997,2 52705  53.2188  41.2932 0001114 101.9674 258.1443 15.08840588 57055,6917.879,95.438,540.514,538.973,0.0
52705.0,STARLINK-3844,PAYLOAD,2023-05-23 02:58:30,15.08848647,0.0001173,53.2186,40.1033,105.8268,254.2854,0.00062252,9.636e-05,0.0,0 STARLINK-3844,1 52705U 22053BB  23143.12396705  .00009636  00000-0  62252-3 0  9991,2 52705  53.2186  40.1033 0001173 105.8268 254.2854 15.08848647 56663,6917.854,95.437,540.53,538.907,0.0
52705.0,STARLINK-3844,PAYLOAD,2023-05-23 20:27:45,15.08847496,0.0001244,53.2188,36.8309,113.0715,247.0408,0.00036088,5.461e-05,0.0,0 STARLINK-3844,1 52705U 22053BB  23143.85260752  .00005461  00000-0  36088-3 0  9993,2 52705  53.2188  36.8309 0001244 113.0715 247.0408 15.08847496 57207,6917.857,95.437,540.583,538.862,0.0
52705.0,STARLINK-3844,PAYLOAD,2023-05-24 02:49:17,15.08851008,0.0001159,53.2189,35.6425,96.6137,263.4987,0.00039025,5.93e-05,0.0,0 STARLINK-3844,1 52705U 22053BB  23144.11756606  .00005930  00000-0  39025-3 0  9996,2 52705  53.2189  35.6425 0001159  96.6137 263.4987 15.08851008 56817,6917.847,95.437,540.514,538.91,0.0
52705.0,STARLINK-3844,PAYLOAD,2023-05-25 15:23:09,15.08840408,0.0001181,53.2187,28.8075,102.6568,257.4556,6.4455e-05,7.38e-06,0.0,0 STARLINK-3844,1 52705U 22053BB  23145.64108750  .00000738  00000-0  64455-4 0  9993,2 52705  53.2187  28.8075 0001181 102.6568 257.4556 15.08840408 57044,6917.879,95.438,540.561,538.927,0.0
52705.0,STARLINK-3844,PAYLOAD,2023-05-25 21:44:42,15.08840672,0.0001134,53.2186,27.6177,95.4155,264.6967,-1.2804e-05,-4.92e-06,0.0,0 STARLINK-3844,1 52705U 22053BB  23145.90604741 -.00000492  00000-0 -12804-4 0  9993,2 52705  53.2186  27.6177 0001134  95.4155 264.6967 15.08840672 57513,6917.878,95.438,540.528,538.959,0.0
52705.0,STARLINK-3844,PAYLOAD,2023-05-26 21:35:29,15.08838648,0.0001094,53.2179,23.1569,91.3637,268.748,4.8578e-05,4.85e-06,0.0,0 STARLINK-3844,1 52705U 22053BB  23146.89964944  .00000485  00000-0  48578-4 0  9993,2 52705  53.2179  23.1569 0001094  91.3637 268.7480 15.08838648 57667,6917.885,95.438,540.506,538.993,0.0
52705.0,STARLINK-3844,PAYLOAD,2023-05-27 00:46:16,15.08840576,0.000109,53.2187,22.5622,92.2929,267.8188,9.5924e-05,1.239e-05,0.0,0 STARLINK-3844,1 52705U 22053BB  23147.03213024  .00001239  00000-0  95924-4 0  9991,2 52705  53.2187  22.5622 0001090  92.2929 267.8188 15.08840576 57252,6917.879,95.438,540.498,538.99,0.0
52705.0,STARLINK-3844,PAYLOAD,2023-05-27 21:26:16,15.08842265,0.0001137,53.2188,18.6956,89.357,270.7553,0.00011135,1.485e-05,0.0,0 STARLINK-3844,1 52705U 22053BB  23147.89324973  .00001485  00000-0  11135-3 0  9995,2 52705  53.2188  18.6956 0001137  89.3570 270.7553 15.08842265 57818,6917.873,95.437,540.525,538.952,0.0
52705.0,STARLINK-3844,PAYLOAD,2023-05-28 00:37:02,15.08846837,0.0001147,53.2189,18.1003,94.2225,265.8899,0.00013923,1.929e-05,0.0,0 STARLINK-3844,1 52705U 22053BB  23148.02572578  .00001929  00000-0  13923-3 0  9997,2 52705  53.2189  18.1003 0001147  94.2225 265.8899 15.08846837 57839,6917.859,95.437,540.518,538.931,0.0
52705.0,STARLINK-3844,PAYLOAD,2023-05-28 21:17:03,15.08845381,0.000114,53.2194,14.2328,98.2435,261.8686,0.00010786,1.429e-05,0.0,0 STARLINK-3844,1 52705U 22053BB  23148.88684656  .00001429  00000-0  10786-3 0  9991,2 52705  53.2194  14.2328 0001140  98.2435 261.8686 15.08845381 57969,6917.864,95.437,540.518,538.94,0.0
52705.0,STARLINK-3844,PAYLOAD,2023-05-29 00:27:49,15.08850685,0.00012,53.2195,13.6374,95.3555,264.7574,0.00015,2.101e-05,0.0,0 STARLINK-3844,1 52705U 22053BB  23149.01932192  .00002101  00000-0  15000-3 0  9990,2 52705  53.2195  13.6374 0001200  95.3555 264.7574 15.08850685 57558,6917.848,95.437,540.543,538.883,0.0
52705.0,STARLINK-3844,PAYLOAD,2023-05-29 21:07:50,15.08841528,0.0001157,53.2194,9.7729,101.0848,259.0274,9.6129e-06,-1.35e-06,0.0,0 STARLINK-3844,1 52705U 22053BB  23149.88045038 -.00000135  00000-0  96129-5 0  9998,2 52705  53.2194   9.7729 0001157 101.0848 259.0274 15.08841528 58111,6917.876,95.437,540.541,538.94,0.0
52705.0,STARLINK-3844,PAYLOAD,2023-05-30 20:58:37,15.08844341,0.0001121,53.2184,5.3151,87.5428,272.5692,4.3812e-05,4.1e-06,0.0,0 STARLINK-3844,1 52705U 22053BB  23150.87404897  .00000410  00000-0  43812-4 0  9996,2 52705  53.2184   5.3151 0001121  87.5428 272.5692 15.08844341 58260,6917.867,95.437,540.508,538.957,0.0
52705.0,STARLINK-3844,PAYLOAD,2023-05-31 19:14:01,15.08844402,0.00011,53.2177,1.152,90.253,269.8588,0.00017519,2.502e-05,0.0,0 STARLINK-3844,1 52705U 22053BB  23151.80140940  .00002502  00000-0  17519-3 0  9994,2 52705  53.2177   1.1520 0001100  90.2530 269.8588 15.08844402 57976,6917.867,95.437,540.493,538.971,0.0
52705.0,STARLINK-3844,PAYLOAD,2023-05-31 20:49:24,15.08847651,0.0001101,53.2178,0.8541,91.986,268.1259,0.0002186,3.194e-05,0.0,0 STARLINK-3844,1 52705U 22053BB  23151.86764757  .00003194  00000-0  21860-3 0  9990,2 52705  53.2178   0.8541 0001101  91.9860 268.1259 15.08847651 58417,6917.857,95.437,540.484,538.96,0.0
52705.0,STARLINK-3844,PAYLOAD,2023-06-01 06:21:43,15.08842548,0.0001065,53.2184,359.0667,91.0241,269.0873,0.0001417,1.968e-05,0.0,0 STARLINK-3844,1 52705U 22053BB  23152.26509125  .00001968  00000-0  14170-3 0  9994,2 52705  53.2184 359.0667 0001065  91.0241 269.0873 15.08842548 58473,6917.873,95.437,540.474,539.001,0.0
52705.0,STARLINK-3844,PAYLOAD,2023-06-01 20:40:12,15.08842536,0.0001168,53.2176,356.3937,98.297,261.8155,7.0504e-05,8.34e-06,0.0,0 STARLINK-3844,1 52705U 22053BB  23152.86125024  .00000834  00000-0  70504-4 0  9997,2 52705  53.2176 356.3937 0001168  98.2970 261.8155 15.08842536 58139,6917.873,95.437,540.546,538.93,0.0
52705.0,STARLINK-3844,PAYLOAD,2023-06-02 06:12:31,15.08836699,0.0001183,53.2172,354.6096,93.4032,266.7096,-4.1775e-05,-9.53e-06,0.0,0 STARLINK-3844,1 52705U 22053BB  23153.25869224 -.00000953  00000-0 -41775-4 0  9990,2 52705  53.2172 354.6096 0001183  93.4032 266.7096 15.08836699 58620,6917.89,95.438,540.574,538.937,0.0
